ONEWEB-0156             
1 48052U 21025L   25053.73265833 -.00000173  00000+0 -50773-3 0  9998
2 48052  87.8885  55.5178 0001831  84.9634 275.1704 13.13469887190638
ONEWEB-0161             
1 48053U 21025M   25053.70568983 -.00000066  00000+0 -21692-3 0  9997
2 48053  87.8886  55.5372 0001892  82.9701 277.1643 13.13468980190565
ONEWEB-0158             
1 48054U 21025N   25054.42937826  .00000103  00000+0  24707-3 0  9994
2 48054  87.8883  55.3765 0001704  89.4447 270.6877 13.13469514190783
ONEWEB-0157             
1 48055U 21025P   25054.45318624  .00000313  00000+0  82320-3 0  9995
2 48055  87.8884  55.3836 0001933  74.1566 285.9776 13.13468971190739
ONEWEB-0162             
1 48056U 21025Q   25054.41668464 -.00000188  00000+0 -54950-3 0  9992
2 48056  87.8883  55.3831 0001797  87.7716 272.3619 13.13469147190674
ONEWEB-0155             
1 48057U 21025R   25054.43731919  .00000271  00000+0  70631-3 0  9996
2 48057  87.8882  55.3934 0002007  86.0968 274.0390 13.13469529190842
ONEWEB-0149             
1 48058U 21025S   25054.45792848  .00000333  00000+0  87634-3 0  9997
2 48058  87.8884  55.3843 0001580  88.3817 271.7493 13.13471249190656
ONEWEB-0148             
1 48059U 21025T   25054.42302678 -.00000081  00000+0 -25615-3 0  9996
2 48059  87.8885  55.4107 0001259  73.0903 287.0364 13.13468811190762
ONEWEB-0160             
1 48060U 21025U   25053.75330011  .00000353  00000+0  93246-3 0  9990
2 48060  87.8885  55.5408 0002144 112.6588 247.4768 13.13468701190623
ONEWEB-0163             
1 48061U 21025V   25054.42461791 -.00000034  00000+0 -12785-3 0  9993
2 48061  87.8882  55.3919 0001874  79.0926 281.0414 13.13469331190843
ONEWEB-0159             
1 48062U 21025W   25054.41350572 -.00000255  00000+0 -73361-3 0  9999
2 48062  87.8883  55.3751 0001736  82.0854 278.0472 13.13468880190758
ONEWEB-0164             
1 48063U 21025X   25053.71045018 -.00000153  00000+0 -45481-3 0  9997
2 48063  87.8883  55.5266 0001981  89.6029 270.5327 13.13468922190642
ONEWEB-0167             
1 48064U 21025Y   25054.42579294 -.00000002  00000+0 -40981-4 0  9999
2 48064  87.8891  55.4018 0002497  70.2485 289.8914 13.13483814190722
ONEWEB-0166             
1 48065U 21025Z   25053.76123977  .00000430  00000+0  11422-2 0  9998
2 48065  87.8879  55.5054 0001650  86.0979 274.0339 13.13469312190716
ONEWEB-0151             
1 48066U 21025AA  25053.76282758  .00000417  00000+0  11065-2 0  9990
2 48066  87.8883  55.5246 0001993  87.7101 272.4256 13.13469024190653
ONEWEB-0170             
1 48067U 21025AB  25053.99929058  .00000281  00000+0  73389-3 0  9994
2 48067  87.8886  55.4815 0002324  96.6288 263.5105 13.13469765190647
ONEWEB-0168             
1 48068U 21025AC  25054.44207787  .00000388  00000+0  10279-2 0  9990
2 48068  87.8885  55.3702 0001858  85.9213 274.2128 13.13469071190713
ONEWEB-0173             
1 48069U 21025AD  25054.05325210  .00000240  00000+0  62286-3 0  9993
2 48069  87.8884  55.4570 0002127  78.6294 281.5074 13.13469017190907
ONEWEB-0171             
1 48070U 21025AE  25054.47064386 -.00000001  00000+0 -38392-4 0  9994
2 48070  87.8888  55.4103 0001975  87.8951 272.2404 13.13469435190770
ONEWEB-0172             
1 48071U 21025AF  25054.45001462  .00000411  00000+0  10903-2 0  9998
2 48071  87.8886  55.3808 0001979  84.5394 275.5961 13.13469091191660
ONEWEB-0174             
1 48072U 21025AG  25054.43255706  .00000194  00000+0  49659-3 0  9998
2 48072  87.8885  55.3983 0001764  86.0127 274.1204 13.13469846190984
ONEWEB-0175             
1 48073U 21025AH  25053.69933275  .00000142  00000+0  35316-3 0  9998
2 48073  87.8880  55.5184 0002215  91.8194 268.3189 13.13471518190543
ONEWEB-0177             
1 48074U 21025AJ  25054.47381368 -.00000070  00000+0 -22786-3 0  9995
2 48074  87.8883  55.3756 0001865  78.2473 281.8865 13.13468742190837
ONEWEB-0178             
1 48075U 21025AK  25053.72963579 -.00000142  00000+0 -42253-3 0  9994
2 48075  87.8889  55.5592 0001905  81.4073 278.7272 13.13468855190787
ONEWEB-0108             
1 48076U 21025AL  25054.45160011  .00000379  00000+0  10021-2 0  9993
2 48076  87.8881  55.3759 0001688  93.1441 266.9881 13.13469276190817
ONEWEB-0169             
1 48077U 21025AM  25054.48333543 -.00000203  00000+0 -59180-3 0  9997
2 48077  87.8885  55.3858 0001664  93.7941 266.3378 13.13469121190709
ONEWEB-0176             
1 48210U 21031A   25054.47424962 -.00000178  00000+0 -51524-3 0  9993
2 48210  87.9035  24.8787 0001925  83.6732 276.4617 13.14502252186712
ONEWEB-0184             
1 48211U 21031B   25054.44729146  .00000259  00000+0  66364-3 0  9999
2 48211  87.9032  24.8585 0002751  82.3446 277.7996 13.14501533185390
ONEWEB-0179             
1 48212U 21031C   25054.41716205  .00000026  00000+0  36326-4 0  9997
2 48212  87.9035  24.8767 0001843  80.3199 279.8139 13.14502949185439
ONEWEB-0180             
1 48213U 21031D   25054.45045560  .00000159  00000+0  39516-3 0  9991
2 48213  87.9033  24.8614 0002045  78.1808 281.9551 13.14504853185322
ONEWEB-0218             
1 48214U 21031E   25053.86371731 -.00000159  00000+0 -46342-3 0  9995
2 48214  87.9032  24.9793 0002859  76.3007 283.8440 13.14504497185406
ONEWEB-0209             
1 48215U 21031F   25054.38544842  .00000021  00000+0  21837-4 0  9998
2 48215  87.9037  24.9156 0001832  77.3558 282.7776 13.14502599185475
ONEWEB-0198             
1 48216U 21031G   25054.14123742  .00000214  00000+0  54212-3 0  9991
2 48216  87.9035  24.9668 0002160  75.7493 284.3876 13.14503437185535
ONEWEB-0189             
1 48217U 21031H   25054.45838671  .00000053  00000+0  10975-3 0  9999
2 48217  87.9034  24.8782 0002161  72.9921 287.1445 13.14502565185339
ONEWEB-0196             
1 48218U 21031J   25054.43618836  .00000298  00000+0  76897-3 0  9993
2 48218  87.9035  24.8913 0001943  82.0258 278.1092 13.14503104185326
ONEWEB-0183             
1 48219U 21031K   25054.41081104 -.00000056  00000+0 -18571-3 0  9993
2 48219  87.9035  24.9101 0001680  81.8278 278.3042 13.14505179185426
ONEWEB-0185             
1 48220U 21031L   25054.43698335  .00000232  00000+0  59173-3 0  9994
2 48220  87.9034  24.8753 0001779  74.9252 285.2075 13.14504674185357
ONEWEB-0187             
1 48221U 21031M   25053.64567541 -.00000056  00000+0 -18568-3 0  9990
2 48221  87.9033  25.0682 0001784  80.2546 279.8785 13.14502722185262
ONEWEB-0192             
1 48222U 21031N   25054.38702829 -.00000002  00000+0 -40189-4 0  9999
2 48222  87.9036  24.9189 0001948  81.2766 278.8585 13.14502397185280
ONEWEB-0219             
1 48223U 21031P   25054.44253019  .00000280  00000+0  72002-3 0  9993
2 48223  87.9036  24.8810 0001836  76.7267 283.4067 13.14501141185498
ONEWEB-0202             
1 48224U 21031Q   25054.42350034  .00000133  00000+0  32559-3 0  9997
2 48224  87.9034  24.9009 0002548  72.6498 287.4910 13.14501204185479
ONEWEB-0204             
1 48225U 21031R   25054.45758786  .00000052  00000+0  10705-3 0  9996
2 48225  87.9034  24.9065 0001532  85.8280 274.3025 13.14506244185379
ONEWEB-0205             
1 48226U 21031S   25054.43302268  .00000270  00000+0  69447-3 0  9994
2 48226  87.9034  24.8826 0001824  77.8193 282.3141 13.14502990185385
ONEWEB-0206             
1 48227U 21031T   25054.40605795 -.00000108  00000+0 -32632-3 0  9991
2 48227  87.9030  24.8711 0001819  80.7567 279.3769 13.14502792185334
ONEWEB-0182             
1 48228U 21031U   25053.64012950 -.00000134  00000+0 -39553-3 0  9990
2 48228  87.9034  25.0612 0001712  85.7360 274.3965 13.14504059185432
ONEWEB-0186             
1 48229U 21031V   25053.65122654 -.00000040  00000+0 -14324-3 0  9990
2 48229  87.9032  25.0211 0001886  79.8152 280.3190 13.14502105185382
ONEWEB-0181             
1 48230U 21031W   25053.62901950 -.00000138  00000+0 -40669-3 0  9992
2 48230  87.9034  25.0967 0001989  80.1090 280.0264 13.14502329185235
ONEWEB-0188             
1 48231U 21031X   25054.19990936  .00000213  00000+0  54109-3 0  9994
2 48231  87.9032  24.9759 0001815  81.2711 278.8624 13.14502999185217
ONEWEB-0220             
1 48232U 21031Y   25054.46790149 -.00000117  00000+0 -35106-3 0  9990
2 48232  87.9030  24.8726 0001768  73.7776 286.3548 13.14501274185510
ONEWEB-0165             
1 48233U 21031Z   25054.42033100  .00000079  00000+0  17805-3 0  9995
2 48233  87.9034  24.9151 0001943  78.5144 281.6204 13.14502534185466
ONEWEB-0199             
1 48234U 21031AA  25054.48059216 -.00000194  00000+0 -55884-3 0  9997
2 48234  87.9035  24.8690 0001913  88.3441 271.7908 13.14502492185375
ONEWEB-0203             
1 48235U 21031AB  25053.63378184 -.00000143  00000+0 -42114-3 0  9998
2 48235  87.9034  25.0396 0002202  90.7800 269.3582 13.14502586185273
ONEWEB-0197             
1 48236U 21031AC  25054.44647954  .00000271  00000+0  69551-3 0  9997
2 48236  87.9035  24.8890 0001494  84.4696 275.6604 13.14504190185296
ONEWEB-0194             
1 48237U 21031AD  25054.19673820  .00000112  00000+0  26827-3 0  9994
2 48237  87.9034  24.9336 0002008  90.4623 269.6737 13.14502271185435
ONEWEB-0193             
1 48238U 21031AE  25054.44093690  .00000273  00000+0  70062-3 0  9992
2 48238  87.9037  24.8930 0001996  82.9679 277.1677 13.14504511185414
ONEWEB-0191             
1 48239U 21031AF  25054.45204729  .00000158  00000+0  39093-3 0  9992
2 48239  87.9033  24.8669 0001975  82.0032 278.1322 13.14502106185271
ONEWEB-0195             
1 48240U 21031AG  25054.20070456  .00000166  00000+0  41329-3 0  9999
2 48240  87.9032  24.9150 0002133  73.5087 286.6277 13.14502491185225
ONEWEB-0201             
1 48241U 21031AH  25054.41795888  .00000010  00000+0 -66663-5 0  9995
2 48241  87.9035  24.9145 0001876  78.6950 281.4390 13.14504177185481
ONEWEB-0207             
1 48242U 21031AJ  25053.86449262 -.00000204  00000+0 -58512-3 0  9994
2 48242  87.9033  24.9874 0001675  79.6414 280.4904 13.14501287185324
